{
  "type": "FeatureCollection",
  "features": [
    {
      "type": "Feature",
      "properties": {
        "norad_id": 34492,
        "name": "IRIDIUM 33 DEB",
        "group": "iridium-33-debris",
        "lat": -77.6304291684428,
        "lon": 173.78417136627743,
        "alt_km": 678.0039913939181,
        "timestamp": "2025-12-05T18:53:13.665731+00:00",
        "meta_object_name": "IRIDIUM 33 DEB",
        "meta_object_id": "1997-051GH",
        "meta_epoch": "2025-12-04T06:22:25.668768",
        "meta_mean_motion": 14.2534836,
        "meta_eccentricity": 0.0190073,
        "meta_inclination": 86.4709,
        "meta_ra_of_asc_node": 338.0551,
        "meta_arg_of_pericenter": 265.7011,
        "meta_mean_anomaly": 110.4059,
        "meta_ephemeris_type": 0,
        "meta_classification_type": "U",
        "meta_norad_cat_id": 34492,
        "meta_element_set_no": 999,
        "meta_rev_at_epoch": 84938,
        "meta_bstar": 0.015697,
        "meta_mean_motion_dot": 0.00044922,
        "meta_mean_motion_ddot": 0,
        "tle_line1": "1 34492U 97051GH  25338.26557487  .00044922  00000+0  15697-1 0  9998",
        "tle_line2": "2 34492  86.4709 338.0551 0190073 265.7011 110.4059 14.25348360849383"
      },
      "geometry": {
        "type": "Point",
        "coordinates": [
          173.78417136627743,
          -77.6304291684428
        ]
      }
    },
    {
      "type": "Feature",
      "properties": {
        "norad_id": 34497,
        "name": "IRIDIUM 33 DEB",
        "group": "iridium-33-debris",
        "lat": 86.1546897997812,
        "lon": 159.84178610852317,
        "alt_km": 791.1753701685329,
        "timestamp": "2025-12-05T18:53:13.665747+00:00",
        "meta_object_name": "IRIDIUM 33 DEB",
        "meta_object_id": "1997-051GN",
        "meta_epoch": "2025-12-05T05:08:17.522880",
        "meta_mean_motion": 14.27419297,
        "meta_eccentricity": 0.00795949,
        "meta_inclination": 86.2787,
        "meta_ra_of_asc_node": 55.6164,
        "meta_arg_of_pericenter": 4.0623,
        "meta_mean_anomaly": 24.0045,
        "meta_ephemeris_type": 0,
        "meta_classification_type": "U",
        "meta_norad_cat_id": 34497,
        "meta_element_set_no": 999,
        "meta_rev_at_epoch": 86776,
        "meta_bstar": 0.0011650862,
        "meta_mean_motion_dot": 2.973e-05,
        "meta_mean_motion_ddot": 0,
        "tle_line1": "1 34497U 97051GN  25339.21409170  .00002973  00000+0  11651-2 0  9991",
        "tle_line2": "2 34497  86.2787  55.6164 0079594   4.0623  24.0045 14.27419297867768"
      },
      "geometry": {
        "type": "Point",
        "coordinates": [
          159.84178610852317,
          86.1546897997812
        ]
      }
    },
    {
      "type": "Feature",
      "properties": {
        "norad_id": 34508,
        "name": "IRIDIUM 33 DEB",
        "group": "iridium-33-debris",
        "lat": -24.89050672007179,
        "lon": 103.90215032703367,
        "alt_km": 805.2088161531474,
        "timestamp": "2025-12-05T18:53:13.665765+00:00",
        "meta_object_name": "IRIDIUM 33 DEB",
        "meta_object_id": "1997-051GZ",
        "meta_epoch": "2025-12-04T19:37:43.017600",
        "meta_mean_motion": 14.3831015,
        "meta_eccentricity": 0.00655735,
        "meta_inclination": 86.3702,
        "meta_ra_of_asc_node": 106.0007,
        "meta_arg_of_pericenter": 198.7419,
        "meta_mean_anomaly": 161.1365,
        "meta_ephemeris_type": 0,
        "meta_classification_type": "U",
        "meta_norad_cat_id": 34508,
        "meta_element_set_no": 999,
        "meta_rev_at_epoch": 87195,
        "meta_bstar": 0.003931661,
        "meta_mean_motion_dot": 0.00012296,
        "meta_mean_motion_ddot": 0,
        "tle_line1": "1 34508U 97051GZ  25338.81785900  .00012296  00000+0  39317-2 0  9995",
        "tle_line2": "2 34508  86.3702 106.0007 0065573 198.7419 161.1365 14.38310150871956"
      },
      "geometry": {
        "type": "Point",
        "coordinates": [
          103.90215032703367,
          -24.89050672007179
        ]
      }
    },
    {
      "type": "Feature",
      "properties": {
        "norad_id": 34521,
        "name": "IRIDIUM 33 DEB",
        "group": "iridium-33-debris",
        "lat": -68.83198808312603,
        "lon": -136.98315826714935,
        "alt_km": 689.3014698595134,
        "timestamp": "2025-12-05T18:53:13.665781+00:00",
        "meta_object_name": "IRIDIUM 33 DEB",
        "meta_object_id": "1997-051HN",
        "meta_epoch": "2025-12-05T04:37:19.918560",
        "meta_mean_motion": 14.63261788,
        "meta_eccentricity": 0.00010777,
        "meta_inclination": 86.3806,
        "meta_ra_of_asc_node": 33.8706,
        "meta_arg_of_pericenter": 276.7472,
        "meta_mean_anomaly": 83.3617,
        "meta_ephemeris_type": 0,
        "meta_classification_type": "U",
        "meta_norad_cat_id": 34521,
        "meta_element_set_no": 999,
        "meta_rev_at_epoch": 88362,
        "meta_bstar": 0.0018603871,
        "meta_mean_motion_dot": 9.614e-05,
        "meta_mean_motion_ddot": 0,
        "tle_line1": "1 34521U 97051HN  25339.19259165  .00009614  00000+0  18604-2 0  9997",
        "tle_line2": "2 34521  86.3806  33.8706 0001077 276.7472  83.3617 14.63261788883626"
      },
      "geometry": {
        "type": "Point",
        "coordinates": [
          -136.98315826714935,
          -68.83198808312603
        ]
      }
    },
    {
      "type": "Feature",
      "properties": {
        "norad_id": 34525,
        "name": "IRIDIUM 33 DEB",
        "group": "iridium-33-debris",
        "lat": -38.71633380137367,
        "lon": -127.27464473719017,
        "alt_km": 756.9791823229125,
        "timestamp": "2025-12-05T18:53:13.665797+00:00",
        "meta_object_name": "IRIDIUM 33 DEB",
        "meta_object_id": "1997-051HS",
        "meta_epoch": "2025-12-05T04:49:54.194016",
        "meta_mean_motion": 14.42876479,
        "meta_eccentricity": 0.00065277,
        "meta_inclination": 86.3738,
        "meta_ra_of_asc_node": 50.0613,
        "meta_arg_of_pericenter": 112.5564,
        "meta_mean_anomaly": 305.983,
        "meta_ephemeris_type": 0,
        "meta_classification_type": "U",
        "meta_norad_cat_id": 34525,
        "meta_element_set_no": 999,
        "meta_rev_at_epoch": 87979,
        "meta_bstar": 0.00079428209,
        "meta_mean_motion_dot": 2.671e-05,
        "meta_mean_motion_ddot": 0,
        "tle_line1": "1 34525U 97051HS  25339.20132169  .00002671  00000+0  79428-3 0  9995",
        "tle_line2": "2 34525  86.3738  50.0613 0006527 112.5564 305.9830 14.42876479879795"
      },
      "geometry": {
        "type": "Point",
        "coordinates": [
          -127.27464473719017,
          -38.71633380137367
        ]
      }
    },
    {
      "type": "Feature",
      "properties": {
        "norad_id": 34529,
        "name": "IRIDIUM 33 DEB",
        "group": "iridium-33-debris",
        "lat": 9.440088847566228,
        "lon": -142.2302257582963,
        "alt_km": 755.8768889367593,
        "timestamp": "2025-12-05T18:53:13.665813+00:00",
        "meta_object_name": "IRIDIUM 33 DEB",
        "meta_object_id": "1997-051HW",
        "meta_epoch": "2025-12-05T03:05:42.408384",
        "meta_mean_motion": 14.40606808,
        "meta_eccentricity": 0.00038726,
        "meta_inclination": 86.3646,
        "meta_ra_of_asc_node": 38.6558,
        "meta_arg_of_pericenter": 203.7968,
        "meta_mean_anomaly": 156.3053,
        "meta_ephemeris_type": 0,
        "meta_classification_type": "U",
        "meta_norad_cat_id": 34529,
        "meta_element_set_no": 999,
        "meta_rev_at_epoch": 88032,
        "meta_bstar": 0.00023962483,
        "meta_mean_motion_dot": 7.83e-06,
        "meta_mean_motion_ddot": 0,
        "tle_line1": "1 34529U 97051HW  25339.12896306  .00000783  00000+0  23962-3 0  9994",
        "tle_line2": "2 34529  86.3646  38.6558 0003872 203.7968 156.3053 14.40606808880329"
      },
      "geometry": {
        "type": "Point",
        "coordinates": [
          -142.2302257582963,
          9.440088847566228
        ]
      }
    },
    {
      "type": "Feature",
      "properties": {
        "norad_id": 34538,
        "name": "IRIDIUM 33 DEB",
        "group": "iridium-33-debris",
        "lat": -42.79366997950332,
        "lon": 5.146198162997655,
        "alt_km": 736.7695709302579,
        "timestamp": "2025-12-05T18:53:13.665829+00:00",
        "meta_object_name": "IRIDIUM 33 DEB",
        "meta_object_id": "1997-051JF",
        "meta_epoch": "2025-12-05T02:44:18.562272",
        "meta_mean_motion": 14.42579883,
        "meta_eccentricity": 0.00337705,
        "meta_inclination": 86.2775,
        "meta_ra_of_asc_node": 8.8962,
        "meta_arg_of_pericenter": 353.7292,
        "meta_mean_anomaly": 71.5332,
        "meta_ephemeris_type": 0,
        "meta_classification_type": "U",
        "meta_norad_cat_id": 34538,
        "meta_element_set_no": 999,
        "meta_rev_at_epoch": 87646,
        "meta_bstar": 0.0019728106,
        "meta_mean_motion_dot": 6.612e-05,
        "meta_mean_motion_ddot": 0,
        "tle_line1": "1 34538U 97051JF  25339.11410373  .00006612  00000+0  19728-2 0  9990",
        "tle_line2": "2 34538  86.2775   8.8962 0033770 353.7292  71.5332 14.42579883876467"
      },
      "geometry": {
        "type": "Point",
        "coordinates": [
          5.146198162997655,
          -42.79366997950332
        ]
      }
    }
  ]
}